{"fetched_at":"2026-07-07T07:58:42.758Z","source":"https://celestrak.org/NORAD/elements/gp.php?NAME=NUSAT&FORMAT=JSON","constellation":"satellogic","records":[{"OBJECT_NAME":"NUSAT-26 (M SOMERVILLE)","OBJECT_ID":"2022-033AD","EPOCH":"2026-07-06T19:58:46.456896","CLASSIFICATION_TYPE":"U","MEAN_MOTION":15.43021076,"ECCENTRICITY":0.0006389,"INCLINATION":97.2334,"RA_OF_ASC_NODE":266.7692,"ARG_OF_PERICENTER":163.0208,"MEAN_ANOMALY":197.1255,"EPHEMERIS_TYPE":0,"NORAD_CAT_ID":52184,"ELEMENT_SET_NO":999,"REV_AT_EPOCH":10773,"BSTAR":0.00036909,"MEAN_MOTION_DOT":0.00016217,"MEAN_MOTION_DDOT":0},{"OBJECT_NAME":"NUSAT-33 (ALBANIA-2)","OBJECT_ID":"2023-001AQ","EPOCH":"2026-07-06T20:33:32.914080","CLASSIFICATION_TYPE":"U","MEAN_MOTION":15.28166389,"ECCENTRICITY":0.0005567,"INCLINATION":97.3057,"RA_OF_ASC_NODE":248.3868,"ARG_OF_PERICENTER":350.5606,"MEAN_ANOMALY":9.5529,"EPHEMERIS_TYPE":0,"NORAD_CAT_ID":55047,"ELEMENT_SET_NO":999,"REV_AT_EPOCH":19531,"BSTAR":0.00027884,"MEAN_MOTION_DOT":0.00007586,"MEAN_MOTION_DDOT":0},{"OBJECT_NAME":"NUSAT-35 (WILLIAMINA)","OBJECT_ID":"2023-001AR","EPOCH":"2026-07-06T20:19:11.381664","CLASSIFICATION_TYPE":"U","MEAN_MOTION":15.35672858,"ECCENTRICITY":0.0011472,"INCLINATION":97.1839,"RA_OF_ASC_NODE":240.0996,"ARG_OF_PERICENTER":39.2257,"MEAN_ANOMALY":320.9816,"EPHEMERIS_TYPE":0,"NORAD_CAT_ID":55048,"ELEMENT_SET_NO":999,"REV_AT_EPOCH":19542,"BSTAR":0.0003264,"MEAN_MOTION_DOT":0.00011271,"MEAN_MOTION_DDOT":0},{"OBJECT_NAME":"NUSAT-39 (TIKVAH ALPER)","OBJECT_ID":"2023-054Z","EPOCH":"2026-07-06T20:04:38.070336","CLASSIFICATION_TYPE":"U","MEAN_MOTION":15.476945,"ECCENTRICITY":0.0003194,"INCLINATION":97.3096,"RA_OF_ASC_NODE":97.7802,"ARG_OF_PERICENTER":4.2495,"MEAN_ANOMALY":355.8782,"EPHEMERIS_TYPE":0,"NORAD_CAT_ID":56201,"ELEMENT_SET_NO":999,"REV_AT_EPOCH":18149,"BSTAR":0.00044818,"MEAN_MOTION_DOT":0.00023123,"MEAN_MOTION_DDOT":0},{"OBJECT_NAME":"NUSAT-38 (MARIA AGNESI)","OBJECT_ID":"2023-054AA","EPOCH":"2026-07-06T20:21:36.710784","CLASSIFICATION_TYPE":"U","MEAN_MOTION":15.50813232,"ECCENTRICITY":0.0010302,"INCLINATION":97.3035,"RA_OF_ASC_NODE":98.4946,"ARG_OF_PERICENTER":0.9832,"MEAN_ANOMALY":359.1439,"EPHEMERIS_TYPE":0,"NORAD_CAT_ID":56202,"ELEMENT_SET_NO":999,"REV_AT_EPOCH":18155,"BSTAR":0.00048073,"MEAN_MOTION_DOT":0.00027744,"MEAN_MOTION_DDOT":0},{"OBJECT_NAME":"NUSAT-37 (JOAN CLARKE)","OBJECT_ID":"2023-054AB","EPOCH":"2026-07-06T19:44:29.795712","CLASSIFICATION_TYPE":"U","MEAN_MOTION":15.59024663,"ECCENTRICITY":0.0006618,"INCLINATION":97.2608,"RA_OF_ASC_NODE":95.2919,"ARG_OF_PERICENTER":168.5402,"MEAN_ANOMALY":191.6006,"EPHEMERIS_TYPE":0,"NORAD_CAT_ID":56203,"ELEMENT_SET_NO":999,"REV_AT_EPOCH":18170,"BSTAR":0.00050815,"MEAN_MOTION_DOT":0.00039615,"MEAN_MOTION_DDOT":0},{"OBJECT_NAME":"NUSAT-40 (C SHOEMAKER)","OBJECT_ID":"2023-084M","EPOCH":"2026-07-06T19:24:15.061824","CLASSIFICATION_TYPE":"U","MEAN_MOTION":15.80614447,"ECCENTRICITY":0.0004483,"INCLINATION":97.486,"RA_OF_ASC_NODE":335.9356,"ARG_OF_PERICENTER":201.8036,"MEAN_ANOMALY":158.3041,"EPHEMERIS_TYPE":0,"NORAD_CAT_ID":56943,"ELEMENT_SET_NO":999,"REV_AT_EPOCH":17190,"BSTAR":0.00062717,"MEAN_MOTION_DOT":0.00120618,"MEAN_MOTION_DDOT":0},{"OBJECT_NAME":"NUSAT-41 (C PAYNE-G)","OBJECT_ID":"2023-084N","EPOCH":"2026-07-06T21:02:49.191936","CLASSIFICATION_TYPE":"U","MEAN_MOTION":15.30034295,"ECCENTRICITY":0.0005893,"INCLINATION":97.5541,"RA_OF_ASC_NODE":324.9073,"ARG_OF_PERICENTER":244.4973,"MEAN_ANOMALY":115.5658,"EPHEMERIS_TYPE":0,"NORAD_CAT_ID":56944,"ELEMENT_SET_NO":999,"REV_AT_EPOCH":17079,"BSTAR":0.00030905,"MEAN_MOTION_DOT":0.00008911,"MEAN_MOTION_DDOT":0},{"OBJECT_NAME":"NUSAT-42 (M WONENBURGER)","OBJECT_ID":"2023-084AL","EPOCH":"2026-07-06T20:16:31.246176","CLASSIFICATION_TYPE":"U","MEAN_MOTION":15.46255194,"ECCENTRICITY":0.000629,"INCLINATION":97.5742,"RA_OF_ASC_NODE":332.7887,"ARG_OF_PERICENTER":173.0181,"MEAN_ANOMALY":187.1156,"EPHEMERIS_TYPE":0,"NORAD_CAT_ID":56966,"ELEMENT_SET_NO":999,"REV_AT_EPOCH":17111,"BSTAR":0.00038689,"MEAN_MOTION_DOT":0.00018978,"MEAN_MOTION_DDOT":0},{"OBJECT_NAME":"NUSAT-44 (MARIA MITCHELL)","OBJECT_ID":"2024-043AA","EPOCH":"2026-07-06T19:57:01.100736","CLASSIFICATION_TYPE":"U","MEAN_MOTION":15.30071394,"ECCENTRICITY":0.0006828,"INCLINATION":97.5475,"RA_OF_ASC_NODE":328.3955,"ARG_OF_PERICENTER":159.7341,"MEAN_ANOMALY":200.4171,"EPHEMERIS_TYPE":0,"NORAD_CAT_ID":59122,"ELEMENT_SET_NO":999,"REV_AT_EPOCH":13027,"BSTAR":0.00030391,"MEAN_MOTION_DOT":0.00008773,"MEAN_MOTION_DDOT":0},{"OBJECT_NAME":"NUSAT-50 (NANCY ROMAN)","OBJECT_ID":"2024-149AB","EPOCH":"2026-07-06T17:21:28.749024","CLASSIFICATION_TYPE":"U","MEAN_MOTION":15.3021614,"ECCENTRICITY":0.0004716,"INCLINATION":97.3779,"RA_OF_ASC_NODE":268.8468,"ARG_OF_PERICENTER":122.3098,"MEAN_ANOMALY":237.86,"EPHEMERIS_TYPE":0,"NORAD_CAT_ID":60493,"ELEMENT_SET_NO":999,"REV_AT_EPOCH":10511,"BSTAR":0.00024573,"MEAN_MOTION_DOT":0.0000711,"MEAN_MOTION_DDOT":0},{"OBJECT_NAME":"NUSAT-48 (HENRIETTA LEAVITT)","OBJECT_ID":"2024-149AG","EPOCH":"2026-07-06T04:31:58.795680","CLASSIFICATION_TYPE":"U","MEAN_MOTION":15.30170218,"ECCENTRICITY":0.00039678,"INCLINATION":97.391,"RA_OF_ASC_NODE":268.5926,"ARG_OF_PERICENTER":187.0344,"MEAN_ANOMALY":173.0842,"EPHEMERIS_TYPE":0,"NORAD_CAT_ID":60498,"ELEMENT_SET_NO":999,"REV_AT_EPOCH":10504,"BSTAR":0.00032447524,"MEAN_MOTION_DOT":0.000094,"MEAN_MOTION_DDOT":0},{"OBJECT_NAME":"NUSAT-49 (KLARA DAN VON NEUMANN)","OBJECT_ID":"2024-149AJ","EPOCH":"2026-07-06T03:58:45.783552","CLASSIFICATION_TYPE":"U","MEAN_MOTION":15.30279282,"ECCENTRICITY":0.00015877,"INCLINATION":97.3772,"RA_OF_ASC_NODE":268.3251,"ARG_OF_PERICENTER":190.714,"MEAN_ANOMALY":169.4067,"EPHEMERIS_TYPE":0,"NORAD_CAT_ID":60500,"ELEMENT_SET_NO":999,"REV_AT_EPOCH":10503,"BSTAR":0.00032011616,"MEAN_MOTION_DOT":0.00009303,"MEAN_MOTION_DDOT":0},{"OBJECT_NAME":"NUSAT-45 (UZMASAT-1)","OBJECT_ID":"2025-009AH","EPOCH":"2026-07-06T16:16:14.187072","CLASSIFICATION_TYPE":"U","MEAN_MOTION":15.30282766,"ECCENTRICITY":0.0000999,"INCLINATION":97.3581,"RA_OF_ASC_NODE":268.7034,"ARG_OF_PERICENTER":209.1872,"MEAN_ANOMALY":150.9313,"EPHEMERIS_TYPE":0,"NORAD_CAT_ID":62640,"ELEMENT_SET_NO":999,"REV_AT_EPOCH":8190,"BSTAR":0.00023894,"MEAN_MOTION_DOT":0.00006924,"MEAN_MOTION_DDOT":0},{"OBJECT_NAME":"NUSAT-52","OBJECT_ID":"2025-276AC","EPOCH":"2026-07-06T16:50:33.543168","CLASSIFICATION_TYPE":"U","MEAN_MOTION":15.1998153,"ECCENTRICITY":0.0002021,"INCLINATION":97.4196,"RA_OF_ASC_NODE":260.9272,"ARG_OF_PERICENTER":333.5325,"MEAN_ANOMALY":26.5807,"EPHEMERIS_TYPE":0,"NORAD_CAT_ID":66692,"ELEMENT_SET_NO":999,"REV_AT_EPOCH":3338,"BSTAR":0.0002161,"MEAN_MOTION_DOT":0.00004584,"MEAN_MOTION_DDOT":0},{"OBJECT_NAME":"NUSAT-51 (YVONNE BRILL)","OBJECT_ID":"2025-276CC","EPOCH":"2026-07-06T04:18:19.744416","CLASSIFICATION_TYPE":"U","MEAN_MOTION":15.20496177,"ECCENTRICITY":0.0001584,"INCLINATION":97.42,"RA_OF_ASC_NODE":260.5489,"ARG_OF_PERICENTER":298.4612,"MEAN_ANOMALY":61.6463,"EPHEMERIS_TYPE":0,"NORAD_CAT_ID":66740,"ELEMENT_SET_NO":999,"REV_AT_EPOCH":3331,"BSTAR":0.00028081,"MEAN_MOTION_DOT":0.00006068,"MEAN_MOTION_DDOT":0}]}
