NUSAT-26 (M SOMERVILLE) 
1 52184U 22033AD  26187.83248214  .00016217  00000+0  36909-3 0  9992
2 52184  97.2334 266.7692 0006389 163.0208 197.1255 15.43021076107731
NUSAT-33 (ALBANIA-2)    
1 55047U 23001AQ  26187.85663095  .00007586  00000+0  27884-3 0  9990
2 55047  97.3057 248.3868 0005567 350.5606   9.5529 15.28166389195319
NUSAT-35 (WILLIAMINA)   
1 55048U 23001AR  26187.84665951  .00011271  00000+0  32640-3 0  9995
2 55048  97.1839 240.0996 0011472  39.2257 320.9816 15.35672858195424
NUSAT-39 (TIKVAH ALPER) 
1 56201U 23054Z   26187.83655174  .00023123  00000+0  44818-3 0  9999
2 56201  97.3096  97.7802 0003194   4.2495 355.8782 15.47694500181496
NUSAT-38 (MARIA AGNESI) 
1 56202U 23054AA  26187.84834156  .00027744  00000+0  48073-3 0  9990
2 56202  97.3035  98.4946 0010302   0.9832 359.1439 15.50813232181556
NUSAT-37 (JOAN CLARKE)  
1 56203U 23054AB  26187.82256708  .00039615  00000+0  50815-3 0  9997
2 56203  97.2608  95.2919 0006618 168.5402 191.6006 15.59024663181703
NUSAT-40 (C SHOEMAKER)  
1 56943U 23084M   26187.80850766  .00120618  00000+0  62717-3 0  9991
2 56943  97.4860 335.9356 0004483 201.8036 158.3041 15.80614447171906
NUSAT-41 (C PAYNE-G)    
1 56944U 23084N   26187.87695824  .00008911  00000+0  30905-3 0  9996
2 56944  97.5541 324.9073 0005893 244.4973 115.5658 15.30034295170794
NUSAT-42 (M WONENBURGER)
1 56966U 23084AL  26187.84480609  .00018978  00000+0  38689-3 0  9991
2 56966  97.5742 332.7887 0006290 173.0181 187.1156 15.46255194171116
NUSAT-44 (MARIA MITCHE*)
1 59122U 24043AA  26187.83126274  .00008773  00000+0  30391-3 0  9992
2 59122  97.5475 328.3955 0006828 159.7341 200.4171 15.30071394130278
NUSAT-50 (NANCY ROMAN)  
1 60493U 24149AB  26187.72324941  .00007110  00000+0  24573-3 0  9990
2 60493  97.3779 268.8468 0004716 122.3098 237.8600 15.30216140105118
NUSAT-48 (HENRIETTA LE*)
1 60498U 24149AG  26187.18887495  .00009400  00000+0  32448-3 0  9997
2 60498  97.3910 268.5926 0003967 187.0344 173.0842 15.30170218105041
NUSAT-49 (KLARA DAN VO*)
1 60500U 24149AJ  26187.16580768  .00009303  00000+0  32012-3 0  9991
2 60500  97.3772 268.3251 0001587 190.7140 169.4067 15.30279282105039
NUSAT-45 (UZMASAT-1)    
1 62640U 25009AH  26187.67794198  .00006924  00000+0  23894-3 0  9998
2 62640  97.3581 268.7034 0000999 209.1872 150.9313 15.30282766 81909
NUSAT-52                
1 66692U 25276AC  26187.70177712  .00004584  00000+0  21610-3 0  9990
2 66692  97.4196 260.9272 0002021 333.5325  26.5807 15.19981530 33381
NUSAT-51 (YVONNE BRILL) 
1 66740U 25276CC  26187.17939519  .00006068  00000+0  28081-3 0  9994
2 66740  97.4200 260.5489 0001584 298.4612  61.6463 15.20496177 33319
